0 SL-14 R/B
1 20238U 89074G   13281.97565059 -.00000002  00000-0 -74190-4 0  9162
2 20238 082.5952 041.5077 0039427 341.8312 153.8337 12.55286159102893
0 SL-14 R/B
1 20238U 89074G   13286.91661287  .00000002  00000-0 -52493-4 0  9184
2 20238 082.5962 038.4021 0039241 330.6175 162.3515 12.55286177103518
0 SL-14 R/B
1 20238U 89074G   13289.44832609  .00000025  00000-0  88164-4 0  9192
2 20238 082.5963 036.8112 0039193 324.7900 083.4037 12.55285937103838
0 SL-14 R/B
1 20238U 89074G   13291.93869970  .00000048  00000-0  23318-3 0  9206
2 20238 082.5962 035.2463 0039136 319.1077 177.5869 12.55286055104144
0 SL-14 R/B
1 20238U 89074G   13294.46998789  .00000029  00000-0  11297-3 0  9211
2 20238 082.5961 033.6555 0039051 313.3442 096.6538 12.55286322104461
